CCSDS_OMM_VERS,COMMENT,CREATION_DATE,ORIGINATOR,OBJECT_NAME,OBJECT_ID,CENTER_NAME,REF_FRAME,TIME_SYSTEM,MEAN_ELEMENT_THEORY,EPOCH,MEAN_MOTION,ECCENTRICITY,INCLINATION,RA_OF_ASC_NODE,ARG_OF_PERICENTER,MEAN_ANOMALY,EPHEMERIS_TYPE,CLASSIFICATION_TYPE,NORAD_CAT_ID,ELEMENT_SET_NO,REV_AT_EPOCH,BSTAR,MEAN_MOTION_DOT,MEAN_MOTION_DDOT,SEMIMAJOR_AXIS,PERIOD,APOAPSIS,PERIAPSIS,OBJECT_TYPE,RCS_SIZE,COUNTRY_CODE,LAUNCH_DATE,SITE,DECAY_DATE,FILE,GP_ID,TLE_LINE0,TLE_LINE1,TLE_LINE2
2,GENERATED VIA SPACE-TRACK.ORG API,2017-07-07T21:27:13,18 SPCS,LEASAT 5,1990-002B,EARTH,TEME,UTC,SGP4,2017-07-07T12:54:30.894912,0.99590827,0.0004056,11.7426,11.5211,318.341,53.0832,0,U,20410,999,8588,0.0,-7.2e-07,0,42356.716,1445.916,35995.76,35961.401,PAYLOAD,LARGE,US,1990-01-09,AFETR,,2165348,112439467,0 LEASAT 5,1 20410U 90002B   17188.53785758 -.00000072 +00000-0 +00000-0 0  9991,2 20410 011.7426 011.5211 0004056 318.3410 053.0832 00.99590827085885
2,GENERATED VIA SPACE-TRACK.ORG API,2017-07-08T22:58:27,18 SPCS,LEASAT 5,1990-002B,EARTH,TEME,UTC,SGP4,2017-07-08T12:53:48.207264,0.99590727,0.0004072,11.7428,11.5131,318.4033,51.3818,0,U,20410,999,8590,0.0,-5.7e-07,0,42356.744,1445.917,35995.857,35961.361,PAYLOAD,LARGE,US,1990-01-09,AFETR,,2165351,112461373,0 LEASAT 5,1 20410U 90002B   17189.53736351 -.00000057 +00000-0 +00000-0 0  9990,2 20410 011.7428 011.5131 0004072 318.4033 051.3818 00.99590727085905
2,GENERATED VIA SPACE-TRACK.ORG API,2017-07-09T21:47:19,18 SPCS,LEASAT 5,1990-002B,EARTH,TEME,UTC,SGP4,2017-07-09T12:36:19.260288,0.99590657,0.0004083,11.743,11.5051,318.5532,45.417,0,U,20410,999,8591,0.0,-4.2e-07,0,42356.764,1445.918,35995.923,35961.335,PAYLOAD,LARGE,US,1990-01-09,AFETR,,2165354,112482913,0 LEASAT 5,1 20410U 90002B   17190.52522292 -.00000042 +00000-0 +00000-0 0  9992,2 20410 011.7430 011.5051 0004083 318.5532 045.4170 00.99590657085914
2,GENERATED VIA SPACE-TRACK.ORG API,2017-07-10T21:49:59,18 SPCS,LEASAT 5,1990-002B,EARTH,TEME,UTC,SGP4,2017-07-10T12:38:27.667968,0.99590639,0.0004084,11.7432,11.4969,318.659,44.3827,0,U,20410,999,8591,0.0,-2.8e-07,0,42356.769,1445.919,35995.932,35961.335,PAYLOAD,LARGE,US,1990-01-09,AFETR,,2165357,112505527,0 LEASAT 5,1 20410U 90002B   17191.52670912 -.00000028 +00000-0 +00000-0 0  9990,2 20410 011.7432 011.4969 0004084 318.6590 044.3827 00.99590639085916
2,GENERATED VIA SPACE-TRACK.ORG API,2017-07-11T23:15:46,18 SPCS,LEASAT 5,1990-002B,EARTH,TEME,UTC,SGP4,2017-07-11T12:31:46.530048,0.99590626,0.0004083,11.7434,11.4888,318.8337,41.081,0,U,20410,999,8592,0.0,-1.4e-07,0,42356.773,1445.919,35995.932,35961.343,PAYLOAD,LARGE,US,1990-01-09,AFETR,,2165360,112534898,0 LEASAT 5,1 20410U 90002B   17192.52206632 -.00000014 +00000-0 +00000-0 0  9990,2 20410 011.7434 011.4888 0004083 318.8337 041.0810 00.99590626085921
2,GENERATED VIA SPACE-TRACK.ORG API,2017-07-12T23:38:05,18 SPCS,LEASAT 5,1990-002B,EARTH,TEME,UTC,SGP4,2017-07-12T12:22:11.267616,0.99590657,0.0004072,11.7436,11.4806,318.9565,37.1095,0,U,20410,999,8593,0.0,-2e-08,0,42356.764,1445.918,35995.876,35961.381,PAYLOAD,LARGE,US,1990-01-09,AFETR,,2165363,112562327,0 LEASAT 5,1 20410U 90002B   17193.51540819 -.00000002 +00000-0 +00000-0 0  9995,2 20410 011.7436 011.4806 0004072 318.9565 037.1095 00.99590657085931
2,GENERATED VIA SPACE-TRACK.ORG API,2017-07-13T22:14:18,18 SPCS,LEASAT 5,1990-002B,EARTH,TEME,UTC,SGP4,2017-07-13T12:14:47.628672,0.99590754,0.0004057,11.7438,11.4725,319.1114,33.6538,0,U,20410,999,8594,0.0,1e-07,0,42356.736,1445.917,35995.785,35961.417,PAYLOAD,LARGE,US,1990-01-09,AFETR,,2165365,112581952,0 LEASAT 5,1 20410U 90002B   17194.51027348 +.00000010 +00000-0 +00000-0 0  9991,2 20410 011.7438 011.4725 0004057 319.1114 033.6538 00.99590754085941
2,GENERATED VIA SPACE-TRACK.ORG API,2017-07-14T21:48:21,18 SPCS,LEASAT 5,1990-002B,EARTH,TEME,UTC,SGP4,2017-07-14T12:22:12.466848,0.99590844,0.0004039,11.744,11.4642,319.2621,33.8882,0,U,20410,999,8595,0.0,2.1e-07,0,42356.711,1445.916,35995.684,35961.468,PAYLOAD,LARGE,US,1990-01-09,AFETR,,2165367,112603389,0 LEASAT 5,1 20410U 90002B   17195.51542207 +.00000021 +00000-0 +00000-0 0  9990,2 20410 011.7440 011.4642 0004039 319.2621 033.8882 00.99590844085951
2,GENERATED VIA SPACE-TRACK.ORG API,2017-07-15T21:23:10,18 SPCS,LEASAT 5,1990-002B,EARTH,TEME,UTC,SGP4,2017-07-15T12:51:42.604128,0.99590945,0.0004016,11.7442,11.4557,319.3255,39.7094,0,U,20410,999,8596,0.0,3.1e-07,0,42356.682,1445.914,35995.558,35961.537,PAYLOAD,LARGE,US,1990-01-09,AFETR,,2165370,112624706,0 LEASAT 5,1 20410U 90002B   17196.53590977 +.00000031 +00000-0 +00000-0 0  9991,2 20410 011.7442 011.4557 0004016 319.3255 039.7094 00.99590945085960
2,GENERATED VIA SPACE-TRACK.ORG API,2017-07-16T05:45:14,18 SPCS,LEASAT 5,1990-002B,EARTH,TEME,UTC,SGP4,2017-07-15T12:51:42.604128,0.99590945,0.0004016,11.7442,11.4557,319.3255,39.7094,0,U,20410,999,8596,0.0,3.1e-07,0,42356.682,1445.914,35995.558,35961.537,PAYLOAD,LARGE,US,1990-01-09,AFETR,,2165371,112636717,0 LEASAT 5,1 20410U 90002B   17196.53590977 +.00000031 +00000-0 +00000-0 0  9991,2 20410 011.7442 011.4557 0004016 319.3255 039.7094 00.99590945085960
2,GENERATED VIA SPACE-TRACK.ORG API,2017-07-17T05:20:01,18 SPCS,LEASAT 5,1990-002B,EARTH,TEME,UTC,SGP4,2017-07-16T13:54:39.663072,0.99591107,0.000399,11.7443,11.4471,319.3396,53.9097,0,U,20410,999,8598,0.0,4e-07,0,42356.636,1445.912,35995.402,35961.601,PAYLOAD,LARGE,US,1990-01-09,AFETR,,2165374,112658170,0 LEASAT 5,1 20410U 90002B   17197.57962573 +.00000040 +00000-0 +00000-0 0  9991,2 20410 011.7443 011.4471 0003990 319.3396 053.9097 00.99591107085986
2,GENERATED VIA SPACE-TRACK.ORG API,2017-07-17T22:31:01,18 SPCS,LEASAT 5,1990-002B,EARTH,TEME,UTC,SGP4,2017-07-17T11:51:12.782880,0.99591264,0.0003959,11.7445,11.4394,319.2611,21.7922,0,U,20410,999,8598,0.0,4.7e-07,0,42356.592,1445.909,35995.226,35961.688,PAYLOAD,LARGE,US,1990-01-09,AFETR,,2165376,112667921,0 LEASAT 5,1 20410U 90002B   17198.49389795 +.00000047 +00000-0 +00000-0 0  9999,2 20410 011.7445 011.4394 0003959 319.2611 021.7922 00.99591264085980
2,GENERATED VIA SPACE-TRACK.ORG API,2017-07-19T16:27:51,18 SPCS,LEASAT 5,1990-002B,EARTH,TEME,UTC,SGP4,2017-07-18T12:08:39.691680,0.99591485,0.0003929,11.7447,11.4309,319.1422,24.7979,0,U,20410,999,8599,0.0,5.3e-07,0,42356.529,1445.906,35995.036,35961.752,PAYLOAD,LARGE,US,1990-01-09,AFETR,,2165379,112688982,0 LEASAT 5,1 20410U 90002B   17199.50601495 +.00000053 +00000-0 +00000-0 0  9993,2 20410 011.7447 011.4309 0003929 319.1422 024.7979 00.99591485085995
2,GENERATED VIA SPACE-TRACK.ORG API,2017-07-19T21:53:21,18 SPCS,LEASAT 5,1990-002B,EARTH,TEME,UTC,SGP4,2017-07-19T12:50:42.455040,0.99591752,0.0003888,11.745,11.4222,318.7877,34.1651,0,U,20410,999,8600,0.0,5.8e-07,0,42356.453,1445.902,35994.787,35961.85,PAYLOAD,LARGE,US,1990-01-09,AFETR,,2165380,112702090,0 LEASAT 5,1 20410U 90002B   17200.53521360 +.00000058 +00000-0 +00000-0 0  9996,2 20410 011.7450 011.4222 0003888 318.7877 034.1651 00.99591752086008
2,GENERATED VIA SPACE-TRACK.ORG API,2017-07-21T12:34:43,18 SPCS,LEASAT 5,1990-002B,EARTH,TEME,UTC,SGP4,2017-07-20T13:24:39.725568,0.99592028,0.0003862,11.7452,11.4134,318.5191,41.4322,0,U,20410,999,8601,0.0,6.1e-07,0,42356.375,1445.898,35994.598,35961.882,PAYLOAD,LARGE,US,1990-01-09,AFETR,,2165383,112735506,0 LEASAT 5,1 20410U 90002B   17201.55879312 +.00000061 +00000-0 +00000-0 0  9996,2 20410 011.7452 011.4134 0003862 318.5191 041.4322 00.99592028086015
2,GENERATED VIA SPACE-TRACK.ORG API,2017-07-21T23:05:01,18 SPCS,LEASAT 5,1990-002B,EARTH,TEME,UTC,SGP4,2017-07-21T11:31:16.266432,0.99592288,0.0003833,11.7454,11.4056,318.164,12.0987,0,U,20410,999,8602,0.0,6.4e-07,0,42356.301,1445.895,35994.402,35961.931,PAYLOAD,LARGE,US,1990-01-09,AFETR,,2165385,112753876,0 LEASAT 5,1 20410U 90002B   17202.48004938 +.00000064 +00000-0 +00000-0 0  9996,2 20410 011.7454 011.4056 0003833 318.1640 012.0987 00.99592288086023
2,GENERATED VIA SPACE-TRACK.ORG API,2017-07-22T06:10:23,18 SPCS,LEASAT 5,1990-002B,EARTH,TEME,UTC,SGP4,2017-07-21T13:47:39.682176,0.99592319,0.0003833,11.7454,11.4048,318.0789,46.1437,0,U,20410,999,8603,0.0,6.4e-07,0,42356.293,1445.894,35994.393,35961.922,PAYLOAD,LARGE,US,1990-01-09,AFETR,,2165386,112763105,0 LEASAT 5,1 20410U 90002B   17202.57476484 +.00000064 +00000-0 +00000-0 0  9995,2 20410 011.7454 011.4048 0003833 318.0789 046.1437 00.99592319086031
2,GENERATED VIA SPACE-TRACK.ORG API,2017-07-22T21:05:04,18 SPCS,LEASAT 5,1990-002B,EARTH,TEME,UTC,SGP4,2017-07-22T12:32:39.717024,0.99592616,0.0003807,11.7456,11.3968,317.7404,26.3539,0,U,20410,999,8603,0.0,6.5e-07,0,42356.208,1445.89,35994.198,35961.948,PAYLOAD,LARGE,US,1990-01-09,AFETR,,2165388,112772839,0 LEASAT 5,1 20410U 90002B   17203.52268191 +.00000065 +00000-0 +00000-0 0  9996,2 20410 011.7456 011.3968 0003807 317.7404 026.3539 00.99592616086037
2,GENERATED VIA SPACE-TRACK.ORG API,2017-07-23T06:10:11,18 SPCS,LEASAT 5,1990-002B,EARTH,TEME,UTC,SGP4,2017-07-22T14:08:42.646272,0.99592636,0.0003808,11.7456,11.3962,317.7073,50.3022,0,U,20410,999,8603,0.0,6.5e-07,0,42356.203,1445.89,35994.197,35961.938,PAYLOAD,LARGE,US,1990-01-09,AFETR,,2165389,112784037,0 LEASAT 5,1 20410U 90002B   17203.58938248 +.00000065 +00000-0 +00000-0 0  9999,2 20410 011.7456 011.3962 0003808 317.7073 050.3022 00.99592636086030
2,GENERATED VIA SPACE-TRACK.ORG API,2017-07-23T23:04:16,18 SPCS,LEASAT 5,1990-002B,EARTH,TEME,UTC,SGP4,2017-07-23T01:12:42.501024,0.99592788,0.000381,11.7457,11.3923,317.5068,215.8317,0,U,20410,999,8604,0.0,6.6e-07,0,42356.16,1445.887,35994.162,35961.887,PAYLOAD,LARGE,US,1990-01-09,AFETR,,2165391,112793548,0 LEASAT 5,1 20410U 90002B   17204.05049191 +.00000066 +00000-0 +00000-0 0  9993,2 20410 011.7457 011.3923 0003810 317.5068 215.8317 00.99592788086047
